0 COSMOS 1948 (GLONASS)
1 19165U 88043C   13282.72711038  .00000031  00000-0  00000+0 0  7159
2 19165 064.2805 232.1683 0004074 298.6978 302.3599 02.13103449197609
0 COSMOS 1948 (GLONASS)
1 19165U 88043C   13285.79778016 -.00000004  00000-0  00000+0 0  7160
2 19165 064.2797 232.0624 0004015 299.1549 137.6325 02.13103557197671
0 COSMOS 1948 (GLONASS)
1 19165U 88043C   13289.76800606 -.00000040  00000-0  00000+0 0  7173
2 19165 064.2788 231.9256 0004028 299.2652 303.3690 02.13103614197750
0 COSMOS 1948 (GLONASS)
1 19165U 88043C   13292.02835841 -.00000025  00000-0  00000+0 0  7189
2 19165 064.2783 231.8478 0003966 300.9946 235.7198 02.13103600197808
0 COSMOS 1948 (GLONASS)
1 19165U 88043C   13294.36728669 -.00000005  00000-0  00000+0 0  7196
2 19165 064.2778 231.7673 0003959 301.4850 229.5922 02.13103553197858
